{"type":"FeatureCollection","name":"gz_poi","crs":{"type":"name","properties":{"name":"urn:ogc:def:crs:OGC:1.3:CRS84"}},"features":[{"type":"Feature","properties":{"full_id":"n892269619","amenity":"fast_food","name":"麦当劳"},"geometry":{"type":"Point","coordinates":[113.32775099385776,23.138126706676303]}},{"type":"Feature","properties":{"full_id":"n2098516220","amenity":"cinema","name":"飞扬影城（正佳IMAX店）"},"geometry":{"type":"Point","coordinates":[113.33364932917468,23.138096336983352]}},{"type":"Feature","properties":{"full_id":"n3262643367","amenity":"restaurant","name":"椒堂米粉"},"geometry":{"type":"Point","coordinates":[113.33743829547518,23.13477907180903]}},{"type":"Feature","properties":{"full_id":"n3645923094","amenity":"restaurant","name":"真过瘾新疆大盘鸡"},"geometry":{"type":"Point","coordinates":[113.32851867174367,23.13497745796806]}},{"type":"Feature","properties":{"full_id":"n4278015090","amenity":"bank","name":"HSBC"},"geometry":{"type":"Point","coordinates":[113.32958375745238,23.138771320144986]}},{"type":"Feature","properties":{"full_id":"n4278223390","amenity":"bank","name":"中国银行"},"geometry":{"type":"Point","coordinates":[113.32781920512888,23.142558922096402]}},{"type":"Feature","properties":{"full_id":"n4369361692","amenity":"bank","name":"中国建设银行"},"geometry":{"type":"Point","coordinates":[113.32786519090033,23.14195844747341]}},{"type":"Feature","properties":{"full_id":"n4810677125","amenity":"cafe","name":"星巴克"},"geometry":{"type":"Point","coordinates":[113.32620239925166,23.1401162843386]}},{"type":"Feature","properties":{"full_id":"n4810677126","amenity":"fast_food","name":"麦当劳"},"geometry":{"type":"Point","coordinates":[113.33569938381312,23.13952014901359]}},{"type":"Feature","properties":{"full_id":"n4959522921","amenity":"cinema","name":"百丽宫影城(天环店)"},"geometry":{"type":"Point","coordinates":[113.33145182514802,23.13751012531399]}},{"type":"Feature","properties":{"full_id":"n6351696086","amenity":"bank","name":"中国银行"},"geometry":{"type":"Point","coordinates":[113.32903284853336,23.13691597938524]}},{"type":"Feature","properties":{"full_id":"n6358071024","amenity":"parking","name":null},"geometry":{"type":"Point","coordinates":[113.33031411543928,23.13860141617676]}},{"type":"Feature","properties":{"full_id":"n6358132221","amenity":"cafe","name":"Starbucks Reserve"},"geometry":{"type":"Point","coordinates":[113.33047225785249,23.138572199431653]}},{"type":"Feature","properties":{"full_id":"n6358142904","amenity":"cafe","name":"星巴克"},"geometry":{"type":"Point","coordinates":[113.32758907023292,23.140123578244896]}},{"type":"Feature","properties":{"full_id":"n6358142905","amenity":"cafe","name":"太平洋咖啡"},"geometry":{"type":"Point","coordinates":[113.32685271158657,23.14003565136282]}},{"type":"Feature","properties":{"full_id":"n6358142906","amenity":"fast_food","name":"麦当劳"},"geometry":{"type":"Point","coordinates":[113.32717837731691,23.140708525678743]}},{"type":"Feature","properties":{"full_id":"n6742566520","amenity":"cafe","name":"星巴克"},"geometry":{"type":"Point","coordinates":[113.32938713984406,23.138471741812786]}},{"type":"Feature","properties":{"full_id":"n6742566521","amenity":"ice_cream","name":"Häagen-Dazs"},"geometry":{"type":"Point","coordinates":[113.32902960609303,23.13850578922423]}},{"type":"Feature","properties":{"full_id":"n6742566523","amenity":"bank","name":"平安银行"},"geometry":{"type":"Point","coordinates":[113.32950896803851,23.138647158016152]}},{"type":"Feature","properties":{"full_id":"n6753355695","amenity":"bank","name":"中国工商银行"},"geometry":{"type":"Point","coordinates":[113.32778829853476,23.140534983002087]}},{"type":"Feature","properties":{"full_id":"n8209087721","amenity":"fast_food","name":"肯德基"},"geometry":{"type":"Point","coordinates":[113.32727061150435,23.139951368351607]}},{"type":"Feature","properties":{"full_id":"n9247381428","amenity":"cafe","name":"星巴克"},"geometry":{"type":"Point","coordinates":[113.33526466376954,23.141206810626553]}},{"type":"Feature","properties":{"full_id":"n9247381430","amenity":"parking","name":null},"geometry":{"type":"Point","coordinates":[113.33559531773955,23.1415243558615]}},{"type":"Feature","properties":{"full_id":"n9407196433","amenity":"cafe","name":"奈雪的茶"},"geometry":{"type":"Point","coordinates":[113.33381589508564,23.137233849969174]}},{"type":"Feature","properties":{"full_id":"n9407196438","amenity":"fast_food","name":"麦当劳"},"geometry":{"type":"Point","coordinates":[113.33342146399563,23.137663270397585]}},{"type":"Feature","properties":{"full_id":"n9407196439","amenity":"ice_cream","name":"哈根达斯"},"geometry":{"type":"Point","coordinates":[113.33409872620639,23.138463830376537]}},{"type":"Feature","properties":{"full_id":"n9407196442","amenity":"cafe","name":"CoCo都可"},"geometry":{"type":"Point","coordinates":[113.3293336430139,23.137132319352972]}},{"type":"Feature","properties":{"full_id":"n9446307900","amenity":"bank","name":"中国民生银行"},"geometry":{"type":"Point","coordinates":[113.33547950530705,23.139537959201572]}},{"type":"Feature","properties":{"full_id":"n9489781048","amenity":"cafe","name":"奈雪的茶"},"geometry":{"type":"Point","coordinates":[113.32699895741011,23.140037701857395]}},{"type":"Feature","properties":{"full_id":"n9519517199","amenity":"fast_food","name":"蜜雪冰城"},"geometry":{"type":"Point","coordinates":[113.32694878096595,23.136350396600587]}},{"type":"Feature","properties":{"full_id":"n9903281674","amenity":"restaurant","name":"味千拉面"},"geometry":{"type":"Point","coordinates":[113.32922716340417,23.137974458888813]}},{"type":"Feature","properties":{"full_id":"n9903281679","amenity":"cafe","name":"瑞幸咖啡"},"geometry":{"type":"Point","coordinates":[113.32980707288723,23.13800414849856]}},{"type":"Feature","properties":{"full_id":"n9982818221","amenity":"restaurant","name":"寿司郎"},"geometry":{"type":"Point","coordinates":[113.3358833651486,23.13849560712977]}},{"type":"Feature","properties":{"full_id":"n9982818223","amenity":"cafe","name":"Starbucks Reserve"},"geometry":{"type":"Point","coordinates":[113.33589946096345,23.138638948140763]}},{"type":"Feature","properties":{"full_id":"n9982818985","amenity":"fountain","name":null},"geometry":{"type":"Point","coordinates":[113.33077476221172,23.136679995720595]}},{"type":"Feature","properties":{"full_id":"n9982818996","amenity":"parking_entrance","name":null},"geometry":{"type":"Point","coordinates":[113.33222770979856,23.13832354448024]}},{"type":"Feature","properties":{"full_id":"n10002545792","amenity":null,"name":null},"geometry":{"type":"Point","coordinates":[113.33828973715275,23.135645590059948]}},{"type":"Feature","properties":{"full_id":"n10106523899","amenity":"toilets","name":null},"geometry":{"type":"Point","coordinates":[113.3313542254344,23.134474152872613]}},{"type":"Feature","properties":{"full_id":"n10106595878","amenity":"police","name":"天河南派出所"},"geometry":{"type":"Point","coordinates":[113.33328700728185,23.134980045914425]}},{"type":"Feature","properties":{"full_id":"n11280610969","amenity":"restaurant","name":null},"geometry":{"type":"Point","coordinates":[113.33359499816578,23.13756491341174]}},{"type":"Feature","properties":{"full_id":"n11873098269","amenity":"restaurant","name":"蟹参宝"},"geometry":{"type":"Point","coordinates":[113.32819943007908,23.135819812479227]}},{"type":"Feature","properties":{"full_id":"n12012637651","amenity":"payment_terminal","name":"港澳通行证自助签证机"},"geometry":{"type":"Point","coordinates":[113.32977998473608,23.139115746528137]}},{"type":"Feature","properties":{"full_id":"n12242178941","amenity":"cafe","name":"星巴克"},"geometry":{"type":"Point","coordinates":[113.3354160923383,23.14402264241902]}},{"type":"Feature","properties":{"full_id":"n12725814129","amenity":"parking","name":null},"geometry":{"type":"Point","coordinates":[113.33406970688276,23.1356652272719]}},{"type":"Feature","properties":{"full_id":"n12725814231","amenity":"parking","name":null},"geometry":{"type":"Point","coordinates":[113.3353088441191,23.14062959484783]}},{"type":"Feature","properties":{"full_id":"n12726229580","amenity":"parking","name":null},"geometry":{"type":"Point","coordinates":[113.3283987761171,23.137870339624737]}},{"type":"Feature","properties":{"full_id":"n12726229624","amenity":"parking","name":null},"geometry":{"type":"Point","coordinates":[113.3274135431713,23.136412582081274]}},{"type":"Feature","properties":{"full_id":"n12729263826","amenity":"parking","name":null},"geometry":{"type":"Point","coordinates":[113.33013783024263,23.135033476288616]}},{"type":"Feature","properties":{"full_id":"n12729263843","amenity":"parking","name":null},"geometry":{"type":"Point","coordinates":[113.33106991078296,23.13475225639957]}},{"type":"Feature","properties":{"full_id":"n12729263854","amenity":"parking","name":null},"geometry":{"type":"Point","coordinates":[113.33146282750778,23.134704473498243]}},{"type":"Feature","properties":{"full_id":"n12729263859","amenity":"parking","name":null},"geometry":{"type":"Point","coordinates":[113.33205984983357,23.134551029648534]}},{"type":"Feature","properties":{"full_id":"n12729263875","amenity":"parking","name":null},"geometry":{"type":"Point","coordinates":[113.33400790300526,23.134545438125556]}},{"type":"Feature","properties":{"full_id":"n12729272201","amenity":"parking","name":null},"geometry":{"type":"Point","coordinates":[113.33622152497107,23.137606634028895]}},{"type":"Feature","properties":{"full_id":"n12816230411","amenity":"toilet","name":"公共卫生间"},"geometry":{"type":"Point","coordinates":[113.33376854220091,23.138099045653004]}}]}